#dP2020  8  4  0  0  0.00000000      96 __u+U ITR00 FIT  IAC
## 2117 172800.00000000   900.00000000 59065 0.0000000000000
+  117   C01C02C03C04C05C06C07C08C09C10C11C12C13C14C16C19C20
+        C21C22C23C24C25C26C27C28C29C30C32C33C34C35C36C37C45
+        C46C60E01E02E03E04E05E07E08E09E11E12E13E14E15E18E19
+        E21E24E25E26E27E30E31E33E36G01G02G03G04G05G06G07G08
+        G09G10G11G12G13G15G16G17G18G19G20G21G22G23G24G25G26
+        G27G28G29G30G31G32J01J02J03J07R01R02R03R04R05R07R08
+        R09R11R12R13R14R15R16R17R18R19R20R21R23R24R26  0  0
++        13 13 13  0  0  8  8  9  8  8  7  8  8  7  8  8  8
++         7  8  8  7  7  8  8  7  8  8  8  8  8  8  8  8  0
++        10  0  5  5  5  4  5  4  4  4  4  5  4  4  5  5  4
++         4  4  5  5  4  4  5  5  4  3  4  3  3  3  3  3  3
++         3  3  3  3  3  3  4  4  3  3  3  3  3  4  3  3  3
++         3  3  3  3  4  3  9  9  9 15  6  5  5  6  6  6  6
++         5  5  5  6  6  5  6  6  6  6  6  6  5  6  8  0  0
%c M  cc GPS ccc cccc cccc cccc cccc ccccc ccccc ccccc ccccc
%c cc cc ccc ccc cccc cccc cccc cccc ccccc ccccc ccccc ccccc
%f  0.0000000  0.000000000  0.00000000000  0.000000000000000
%f  0.0000000  0.000000000  0.00000000000  0.000000000000000
%i    0    0    0    0      0      0      0      0         0
%i    0    0    0    0      0      0      0      0         0
/* INFORMATION & ANALYSIS CENTER (IAC)            RAPID DATA
/* S/V CLOCKS ARE ALIGNED TO GNSS TIME                      
/* G:C1WC2W R:C1PC2P E:C1XC5X C:C2IC6I J:C1CC2S             
/* PCV:IGS14_2113 OL/AL:FES2004  NONE     YN ORB:CoN CLK:CoN
*  2020 08 04 13 15  0.00000000
PC01 -34362.190358  24437.708534    -30.715503   -263.326149
PC02   4454.267184  41940.834540    429.024465    169.712098
PC03 -14760.589677  39532.240056   -341.285053    811.552344
PC04      0.000000      0.000000      0.000000 999999.999999
PC05      0.000000      0.000000      0.000000 999999.999999
PC06  -9037.647663  23427.302084  34314.807863    805.579020
PC07 -23760.644986  31369.238596 -15582.922141    104.328565
PC08  -9403.190929  37159.373641 -17053.332025   -422.483812
PC09   4802.675668  29055.516234  30577.705144    721.550903
PC10 -11378.479398  32081.175367 -24941.657300   -219.583517
PC11   6553.539528  21386.736486 -16596.952645   -534.149892
PC12 -10807.272340  10875.992957 -23290.114627    455.992925
PC13   -670.007353  41845.967821  -3536.471564    578.473048
PC14  -3334.170865  17055.538721  21873.393797    769.607664
PC16  -6076.041540  24047.797036  34202.674484   -592.748116
PC19  -7581.891325 -14171.409789 -22790.117534    497.897226
PC20  12507.822476 -17136.582478 -18096.142789   -836.258673
PC21 -25974.261446   9955.324795   2419.626463   -663.150853
PC22 -23767.758198  -2948.867132 -14347.870873   -766.923836
PC23  14542.290171   7974.616160 -22429.627806   -845.089162
PC24  -9055.698427  26085.735519   3976.232408   -750.000366
PC25   4840.386496  23912.034799 -13532.023279   -709.698499
PC26 -16072.166391  13781.620138  18164.056581    779.917541
PC27  18161.937300  -2713.792461  20996.013283    375.929156
PC28  22767.943214  13844.174397   8268.334914   -186.810543
PC29 -14891.671303 -21715.313396   9237.149298    265.281419
PC30   2632.445838 -17567.578039  21511.591954    356.294845
PC32  25888.922360 -10119.138397  -2382.199741   -880.440331
PC33   7540.320376  14222.664388  22798.870413   -794.599377
PC34  -2181.723113  17904.979393 -21308.251407   -885.773929
PC35 -23218.901069 -13178.909404  -8076.639392   -718.091864
PC36  -4141.949826 -24149.340429  13381.028898   -889.053943
PC37  16484.193449 -12761.275046 -18529.064672   -888.246358
PC45      0.000000      0.000000      0.000000 999999.999999
PC46   8592.501430 -26345.095483  -3396.835022    703.567164
PC60      0.000000      0.000000      0.000000 999999.999999
PE01  11682.172420 -25341.906197   9873.137114   -912.502466
PE02 -11613.941662  25338.603757  -9949.122432    152.051655
PE03  -5573.527510  16389.005255  24015.105468   -328.013939
PE04 -16289.629475 -15906.739527 -18909.925925   -579.601280
PE05 -24416.203681   7260.414288  15087.611320   -357.513150
PE07  28853.824791   6044.746251   2591.445730   -418.084432
PE08  16608.958968  15633.361272  18862.338939   6139.926966
PE09 -28937.977912  -5766.645737  -2471.344176   5974.699065
PE11 -18788.056283 -11419.677586 -19825.756083   4561.296559
PE12 -13016.347213 -26397.809532  -3091.472356   5672.693795
PE13  18771.866572  11639.563395  19703.277557    402.782921
PE14 -25753.998304   3949.951409 -18171.148450  -1108.189707
PE15  13220.169749  26278.369303   3288.331219    857.533162
PE18  22796.749625   3711.800085   8650.689715  -1212.520735
PE19   7966.011569 -15684.179713 -23798.290007     44.700946
PE21  21692.088106 -18190.914246  -8628.248168   -613.901833
PE24 -19160.526563   -257.531963  22551.578959   5315.212487
PE25 -21735.586805  18084.859981   8777.952548   -514.623892
PE26  13247.555188 -10343.184396  24363.154674   2881.900082
PE27  19290.550496   -231.783195 -22440.274774    162.981008
PE30   5118.443382  18155.737463 -22811.746885   3692.959699
PE31  -5585.572673 -17768.892300  23016.043430   -473.492694
PE33    101.096260 -25479.741224  15062.092149   -464.128208
PE36 -13301.603588   9833.734916 -24548.255879    525.219272
PG01  13989.310242  -5291.504490  21683.183955     31.499068
PG02 -13655.039465 -17233.130023 -14289.740279   -497.304263
PG03  22889.091025 -11363.037186   6971.480720   -260.137407
PG04  21070.165372  -2655.838837 -15961.824949   -120.588266
PG05 -16192.688361  -5574.878890 -20496.355722    -18.098750
PG06  -6226.267702 -25414.339697  -4380.095274   -311.645998
PG07   6729.700217 -21744.116471 -12947.239251   -342.666429
PG08  25351.612590   5397.211117   6405.919759    -43.318780
PG09  10950.122579 -11824.377568 -21165.733068   -264.931371
PG10  -4806.529498  19119.604294  17768.049513   -418.485912
PG11  18899.109798   3388.338053  17731.345614   -202.125746
PG12 -23527.981465   9462.494502   7396.406301     84.949297
PG13 -22927.981648 -13518.140903   -333.564927     32.770672
PG15 -25766.407441  -2686.812206   6368.405820   -212.911471
PG16  17943.883389   4235.711850 -19500.897332   -191.365068
PG17  -6386.154364 -17472.826381  19398.423468    306.071361
PG18  -6696.562276  22216.181538 -12906.431947    262.356250
PG19 -13744.210151 -17928.330867  13713.158997   -122.952540
PG20 -13570.128371  21398.300725   7472.761368    527.132735
PG21   9769.291162  24108.102459   6907.280192     31.744476
PG22  21835.583895  -5755.627837  14071.460910   -766.932527
PG23 -13587.103096  20250.949795  10488.291561     28.598877
PG24 -15384.116860   2928.054040  21248.281522    -16.669575
PG25 -19920.257063  17219.780431  -2385.298711     31.252421
PG26   6614.150711  14438.028976 -21297.280280    255.420761
PG27  23097.154998  12804.871668  -4350.243391   -362.848492
PG28   4820.823659 -18327.524781  19252.622055    692.928338
PG29 -15099.781578   7639.133138 -20528.166671   -165.338676
PG30     51.659930 -26208.036191  -3453.803624   -275.627234
PG31   6982.707971  24580.039638  -6350.516167    -60.001977
PG32   8198.584190  17412.330497  18455.758847    327.637658
PJ01 -30461.000765  25963.125955  18435.218270   -192.751992
PJ02 -32704.996502  25153.178102  13655.673869     -1.977445
PJ03 -23563.273578  18409.563723 -25131.168904     -0.308515
PJ07 -25409.882488  33652.059420     32.132920      0.021969
PR01  -1851.603681 -10926.617456 -22972.555108     65.535435
PR02 -21534.281736  -3778.206739 -13051.938168    439.424558
PR03 -24692.895549   4846.752656   4060.753399     19.769858
PR04 -13834.960174  10467.651389  18725.650297     58.686606
PR05   4811.382643  10238.349222  22874.985025     55.250204
PR07  24609.095669  -5033.992374  -4526.082439    -39.010806
PR08  13884.009314 -10514.935718 -18589.451605    -53.857711
PR09  11192.950237   2237.633240 -22789.126204    147.118797
PR11  10519.389071 -23167.865455  -1323.121585    -32.897914
PR12   1340.059928 -20861.975549  14660.115252    152.705237
PR13  -9104.269824  -6509.242954  22911.016868    -42.048418
PR14 -14246.286367  11762.779252  17615.861750     54.091468
PR15 -11040.143045  22887.705835   2282.214131    106.961632
PR16   -357.630241  20487.328261 -15128.028536     -5.036467
PR17 -13700.054116  -2098.850200 -21422.860721    346.868518
PR18  -2627.257424  13010.726350 -21785.318541     44.658476
PR19   8873.228152  21247.682263 -10972.735947   -105.332242
PR20  16707.028473  17246.348107   8663.692818   -418.452986
PR21  13110.540570   1173.731099  21835.788658   -142.769390
PR23 -13287.535444 -21385.894300   4098.689390    323.081186
PR24 -17062.914106 -16560.975906  -9249.617492      8.590839
PR26  16148.959024  19388.111337   3627.913667   -363.407975
EOF
